[
    {
        "Altitude(m)": 605470.7395046032,
        "Argument of Periapsis(deg)": 0.0,
        "Eccentricity": 0.0,
        "Inclination(deg)": 60.0,
        "Latitude(deg)": 27.988042197936757,
        "Longitude(deg)": -117.73702755205039,
        "Mean Anomaly(deg)": 147.2727,
        "RAAN(deg)": 180.0,
        "Satellite Name": "Test1 801",
        "Satellite Number": 801,
        "Semi-Major Axis(m)": 6980739.136638005,
        "Time(s)": 0
    },
    {
        "Altitude(m)": 605395.7779198064,
        "Argument of Periapsis(deg)": 0.00010418945913296404,
        "Eccentricity": 0.0,
        "Inclination(deg)": 60.0,
        "Latitude(deg)": 27.473732585264564,
        "Longitude(deg)": -117.38384084234454,
        "Mean Anomaly(deg)": 147.8928061454618,
        "RAAN(deg)": 179.99957995086024,
        "Satellite Name": "Test1 801",
        "Satellite Number": 801,
        "Semi-Major Axis(m)": 6980739.136638005,
        "Time(s)": 10
    }
]